sat1_epoch day,sat1_ballistic coefficient,sat1_inclination,sat1_right ascension of the ascending node,sat1_eccentricity,sat1_argument of perigee,sat1_mean anomaly,sat1_mean motion,sat1_apogee,sat1_perigee,sat2_epoch day,sat2_ballistic coefficient,sat2_inclination,sat2_right ascension of the ascending node,sat2_eccentricity,sat2_argument of perigee,sat2_mean anomaly,sat2_mean motion,sat2_apogee,sat2_perigee,inclination difference,eccentricity difference,ascending node difference,argument of perigee difference,mean anomaly difference,mean motion difference,apogee difference,perigee difference,close_approach
351.41757455,7.539e-05,97.3651,48.4599,0.0010079,127.6645,232.5507,15.22632785,-6277.474514806843,-6277.6628536531725,356.3092103,0.0002307,34.9959,300.6535,0.0020824,274.9826,84.8511,15.20575865,-6277.289708546527,-6277.679182128586,62.3692,-0.0010745,-252.1936,-147.3181,147.6996,0.02056920000000062,-0.1848062603157814,0.01632847541350202,False
351.80629581,7.6e-07,87.9061,8.1602,0.0001454,89.4332,270.6965,13.15550205,-6267.989671176109,-6268.019622224849,356.50680066,9.7e-07,87.907,7.2513,0.0001627,93.9914,266.1402,13.15549967,-6267.987876932349,-6268.021391624355,-0.0009000000000014552,-1.7299999999999987e-05,0.9089,-4.558199999999999,4.5563000000000216,2.3800000015228306e-06,-0.001794243760741665,0.0017693995059744339,False
351.44926621,0.00010656,97.4338,65.2807,0.0004486,55.5383,304.6276,15.21900636,-6277.496794895766,-6277.580648354723,353.24942434,-9.864e-05,86.5008,168.2123,0.0011113,296.9191,63.0816,13.41237933,-6269.210949998496,-6269.436935203671,10.933000000000007,-0.0006627,-102.9316,-241.38080000000002,241.54599999999996,1.8066270299999996,-8.285844897269271,-8.143713151051998,False
351.67303845,0.00021691,53.0568,82.8437,0.0001542,97.6562,262.4602,15.06440122,-6276.8858415708755,-6276.9148619024,355.78088989,7.35e-06,43.0011,255.383,0.0001259,282.2937,77.7779,15.40704966,-6278.289070468644,-6278.312412141984,10.055700000000002,2.830000000000001e-05,-172.53930000000003,-184.6375,184.6823,-0.3426484399999996,1.403228897768713,1.397550239584234,False
355.58478183,3.585e-05,53.1609,58.266,0.0001469,71.1854,288.9306,15.30199851,-6277.863280057872,-6277.890639607073,356.21942218,9.505e-05,43.0,55.2378,0.0001915,168.8544,191.2356,15.40770907,-6278.285634781252,-6278.321137584344,10.160899999999998,-4.46e-05,3.0281999999999982,-97.669,97.69500000000002,-0.10571055999999857,0.42235472338052205,0.43049797727053374,False
351.16272662,-8.92e-06,53.2174,302.645,0.0001555,91.6484,268.4686,15.08832534,-6276.985230916331,-6277.014464963621,355.89525504,6.82e-06,59.914,112.9967,0.0016143,316.7964,43.1802,14.27152688,-6273.289146726635,-6273.604107546263,-6.696600000000004,-0.0014588,189.64829999999998,-225.14800000000002,225.28839999999997,0.8167984600000011,-3.6960841896952843,-3.410357417358682,False
350.53896,-1.649e-05,53.2186,85.4652,0.0001531,85.2368,274.8799,15.08838167,-6276.985690508767,-6277.014473283691,351.84859846,4.46e-06,43.001,32.1496,0.0001346,258.0517,102.0183,15.25903559,-6277.689687434218,-6277.7148031897805,10.217600000000004,1.8500000000000016e-05,53.315599999999996,-172.81489999999997,172.8616,-0.17065391999999946,0.7039969254510652,0.7003299060897916,False
352.04776021,9.1e-06,97.6526,110.266,6.51e-05,243.1912,116.9245,15.01265467,-6276.6781034723435,-6276.690383383849,356.50680066,9.7e-07,87.907,7.2513,0.0001627,93.9914,266.1402,13.15549967,-6267.987876932349,-6268.021391624355,9.74560000000001,-9.76e-05,103.0147,149.1998,-149.2157,1.8571550000000006,-8.69022653999491,-8.66899175949402,False
351.67303845,0.00021691,53.0568,82.8437,0.0001542,97.6562,262.4602,15.06440122,-6276.8858415708755,-6276.9148619024,351.78088056,1.903e-05,43.0028,136.645,0.0001322,269.2196,90.8494,15.02527498,-6276.724602233554,-6276.749525353886,10.054000000000002,2.200000000000002e-05,-53.80130000000001,-171.5634,171.61079999999998,0.03912623999999987,-0.16123933732160367,-0.16533654851355095,False
351.9388086,1.979e-05,43.004,316.0443,0.0001299,269.092,90.9773,15.02531725,-6276.724995851601,-6276.749485316498,356.04789193,2.867e-05,53.2181,10.7058,0.0001507,94.5824,265.534,15.0884063,-6276.986018419686,-6277.014349964171,-10.214100000000002,-2.079999999999999e-05,305.3385,174.50959999999998,-174.55669999999998,-0.06308905000000031,0.261022568084627,0.2648646476727663,False
352.13583985,2.012e-05,53.1574,297.4602,0.0001188,90.5802,269.5352,15.69703947,-6279.435103887999,-6279.456857123031,355.91667824,0.00465972,53.0518,197.5627,0.0001101,94.9026,8.6572,15.30663518,-6277.88551582889,-6277.906017381084,0.10560000000000258,8.699999999999995e-06,99.89749999999998,-4.322400000000002,260.878,0.3904042899999993,-1.549588059108828,-1.5508397419471294,False
351.41757455,7.539e-05,97.3651,48.4599,0.0010079,127.6645,232.5507,15.22632785,-6277.474514806843,-6277.6628536531725,355.87269324,5.8e-06,53.0555,148.9864,0.0001333,96.2142,263.8999,15.06406913,-6276.886425112282,-6276.9115124472055,44.309599999999996,0.0008745999999999999,-100.5265,31.4503,-31.349199999999996,0.16225872000000052,-0.5880896945609493,-0.7513412059670372,False
356.58335648,0.00675528,43.0026,354.5694,0.0001656,287.5182,29.3667,15.17314694,-6277.334989344409,-6277.36600605957,355.87548202,6.44e-06,87.8895,144.4872,0.0001544,99.7358,260.3944,13.10371506,-6267.717516545481,-6267.749405252755,-44.8869,1.1199999999999974e-05,210.08219999999997,187.7824,-231.0277,2.06943188,-9.617472798928247,-9.616600806814859,False
351.94757904,1.766e-05,53.1646,333.8412,0.000119,88.3287,271.7852,15.34232358,-6278.029142773964,-6278.051267205176,356.08241853,1.88e-06,69.999,222.9295,0.0002724,272.1243,87.9605,14.98329057,-6276.535332436343,-6276.58678277216,-16.834399999999995,-0.0001534,110.91170000000002,-183.7956,183.82469999999998,0.359033010000001,-1.4938103376207437,-1.4644844330159685,False
355.76678808,1.22e-06,43.0039,140.7326,0.0001338,274.8921,85.1769,15.02536424,-6276.724824783451,-6276.75004944528,356.34247958,2.2e-06,53.1619,335.1451,0.0001472,104.6128,255.5036,15.30196375,-6277.863111074482,-6277.890526539026,-10.158000000000001,-1.34e-05,-194.41250000000002,170.27930000000003,-170.32670000000002,-0.2765995100000005,1.1382862910304539,1.1404770937460853,False
352.15919891,1.877e-05,43.0023,276.0007,0.0001129,266.4421,93.6301,15.2590542,-6277.691787861603,-6277.712854477483,355.58478183,3.585e-05,53.1609,58.266,0.0001469,71.1854,288.9306,15.30199851,-6277.863280057872,-6277.890639607073,-10.1586,-3.3999999999999986e-05,217.7347,195.25669999999997,-195.30050000000003,-0.042944310000001096,0.1714921962684457,0.17778512959012005,False
355.88961922,8.59e-06,69.9993,163.3751,0.0003011,270.7471,89.3343,14.98329309,-6276.53263263084,-6276.589503755574,356.46533684,-3.13e-06,53.1584,156.0003,6.89e-05,83.8185,276.2911,15.69706887,-6279.439786759564,-6279.452402887698,16.840900000000005,0.0002322,7.374799999999993,186.9286,-186.9568,-0.7137757800000006,2.9071541287239597,2.8628991321238573,False
352.09087181,-5.384e-05,53.0551,315.6844,0.0001664,91.5779,268.54,15.06385373,-6276.882413179112,-6276.9137303008365,356.27423888,2.149e-05,43.0037,86.5949,0.0001195,263.6357,96.4349,15.02541457,-6276.7263832616045,-6276.748911963825,10.051400000000001,4.69e-05,229.0895,-172.0578,172.10510000000002,0.03843915999999936,-0.15602991750711226,-0.1648183370116385,False
351.44926621,0.00010656,97.4338,65.2807,0.0004486,55.5383,304.6276,15.21900636,-6277.496794895766,-6277.580648354723,355.89525504,6.82e-06,59.914,112.9967,0.0016143,316.7964,43.1802,14.27152688,-6273.289146726635,-6273.604107546263,37.519800000000004,-0.0011657,-47.71600000000001,-261.2581,261.44739999999996,0.9474794800000002,-4.207648169130152,-3.9765408084604132,False
351.80629581,7.6e-07,87.9061,8.1602,0.0001454,89.4332,270.6965,13.15550205,-6267.989671176109,-6268.019622224849,352.16379862,6.2e-07,87.9177,53.7427,0.0001661,98.7001,261.432,13.19727647,-6268.205036536017,-6268.239179351759,-0.011600000000001387,-2.0699999999999988e-05,-45.582499999999996,-9.266900000000007,9.264499999999998,-0.041774419999999424,0.21536535990799166,0.21955712691033114,False
351.94467761,3.8e-05,43.0064,303.5866,0.0001345,259.7251,100.344,15.02519443,-6276.724048488337,-6276.749405308801,355.91667824,0.00465972,53.0518,197.5627,0.0001101,94.9026,8.6572,15.30663518,-6277.88551582889,-6277.906017381084,-10.0454,2.4399999999999983e-05,106.02389999999997,164.8225,91.68679999999999,-0.2814407499999998,1.1614673405529174,1.156612072282769,False
351.91667824,0.00157934,53.0493,25.2,0.0002929,46.609,147.6726,15.73699669,-6279.574249658963,-6279.6277911812,356.3872506,3.8e-06,98.8601,71.6819,0.0013362,250.8244,109.1482,14.13458444,-6272.686353805648,-6272.94873659785,-45.8108,-0.0010433,-46.481899999999996,-204.2154,38.524399999999986,1.6024122500000004,-6.887895853315058,-6.67905458335008,False
355.83191012,0.00044775,14.9762,193.0261,0.000509,49.9711,310.106,15.47714982,-6278.533818210945,-6278.62790089592,355.83739789,4.8e-06,87.89,129.3378,0.000128,86.5198,273.6077,13.11416307,-6267.77510516069,-6267.8015273517285,-72.9138,0.00038100000000000005,63.68830000000003,-36.548700000000004,36.49829999999997,2.3629867499999992,-10.75871305025521,-10.826373544191483,False
356.48148713,3.035e-05,98.1276,260.2924,0.0006831,244.6413,115.4091,14.80465785,-6275.7378823680665,-6275.867940630376,355.07506205,-3e-08,0.0118,157.9272,2.41e-05,268.4788,292.777,1.00271988,-5798.054518335104,-5798.082133641791,98.11580000000001,0.000659,102.36519999999999,-23.837499999999977,-177.3679,13.80193797,-477.68336403296234,-477.78580698858514,False
351.84859846,4.46e-06,43.001,32.1496,0.0001346,258.0517,102.0183,15.25903559,-6277.689687434218,-6277.7148031897805,351.44926621,0.00010656,97.4338,65.2807,0.0004486,55.5383,304.6276,15.21900636,-6277.496794895766,-6277.580648354723,-54.43280000000001,-0.00031400000000000004,-33.131099999999996,202.5134,-202.60929999999996,0.04002923000000003,-0.1928925384527247,-0.13415483505741577,False
